CCSDS_OMM_VERS = 2.0
CREATION_DATE  = 
ORIGINATOR     = 

OBJECT_NAME    = IDEFIX & ARIANE 42P R/B
OBJECT_ID      = 2002-021B
CENTER_NAME    = EARTH
REF_FRAME      = TEME
TIME_SYSTEM    = UTC
MEAN_ELEMENT_THEORY = SGP/SGP4

EPOCH          = 2026-01-19T19:56:36.048192
MEAN_MOTION    = 14.30981845
ECCENTRICITY   = .00114742
INCLINATION    = 98.5826
RA_OF_ASC_NODE = 319.0362
ARG_OF_PERICENTER = 336.7270
MEAN_ANOMALY   = 23.3392

EPHEMERIS_TYPE = 0
CLASSIFICATION_TYPE = U
NORAD_CAT_ID   = 27422
ELEMENT_SET_NO = 999
REV_AT_EPOCH   = 23703
BSTAR          = .12051004E-3
MEAN_MOTION_DOT = .273E-5
MEAN_MOTION_DDOT = 0

CCSDS_OMM_VERS = 2.0
CREATION_DATE  = 
ORIGINATOR     = 

OBJECT_NAME    = AQUA
OBJECT_ID      = 2002-022A
CENTER_NAME    = EARTH
REF_FRAME      = TEME
TIME_SYSTEM    = UTC
MEAN_ELEMENT_THEORY = SGP/SGP4

EPOCH          = 2026-01-19T22:54:26.644320
MEAN_MOTION    = 14.61832814
ECCENTRICITY   = .00019835
INCLINATION    = 98.4091
RA_OF_ASC_NODE = 346.4652
ARG_OF_PERICENTER = 72.1988
MEAN_ANOMALY   = 359.6274

EPHEMERIS_TYPE = 0
CLASSIFICATION_TYPE = U
NORAD_CAT_ID   = 27424
ELEMENT_SET_NO = 999
REV_AT_EPOCH   = 26161
BSTAR          = .26931097E-3
MEAN_MOTION_DOT = .1296E-4
MEAN_MOTION_DDOT = 0

CCSDS_OMM_VERS = 2.0
CREATION_DATE  = 
ORIGINATOR     = 

OBJECT_NAME    = CZ-4B R/B
OBJECT_ID      = 2002-024C
CENTER_NAME    = EARTH
REF_FRAME      = TEME
TIME_SYSTEM    = UTC
MEAN_ELEMENT_THEORY = SGP/SGP4

EPOCH          = 2026-01-19T18:44:57.993792
MEAN_MOTION    = 14.14536520
ECCENTRICITY   = .00505159
INCLINATION    = 98.8939
RA_OF_ASC_NODE = 73.4096
ARG_OF_PERICENTER = 160.9491
MEAN_ANOMALY   = 310.7247

EPHEMERIS_TYPE = 0
CLASSIFICATION_TYPE = U
NORAD_CAT_ID   = 27432
ELEMENT_SET_NO = 999
REV_AT_EPOCH   = 22232
BSTAR          = .52632284E-4
MEAN_MOTION_DOT = .58E-6
MEAN_MOTION_DDOT = 0

CCSDS_OMM_VERS = 2.0
CREATION_DATE  = 
ORIGINATOR     = 

OBJECT_NAME    = MIDORI II (ADEOS-II)
OBJECT_ID      = 2002-056A
CENTER_NAME    = EARTH
REF_FRAME      = TEME
TIME_SYSTEM    = UTC
MEAN_ELEMENT_THEORY = SGP/SGP4

EPOCH          = 2026-01-19T22:33:10.118016
MEAN_MOTION    = 14.29238946
ECCENTRICITY   = .00018459
INCLINATION    = 98.7692
RA_OF_ASC_NODE = 338.1077
ARG_OF_PERICENTER = 111.5521
MEAN_ANOMALY   = 248.5857

EPHEMERIS_TYPE = 0
CLASSIFICATION_TYPE = U
NORAD_CAT_ID   = 27597
ELEMENT_SET_NO = 999
REV_AT_EPOCH   = 20333
BSTAR          = .17165052E-3
MEAN_MOTION_DOT = .391E-5
MEAN_MOTION_DDOT = 0

CCSDS_OMM_VERS = 2.0
CREATION_DATE  = 
ORIGINATOR     = 

OBJECT_NAME    = H-2A R/B
OBJECT_ID      = 2002-056E
CENTER_NAME    = EARTH
REF_FRAME      = TEME
TIME_SYSTEM    = UTC
MEAN_ELEMENT_THEORY = SGP/SGP4

EPOCH          = 2026-01-19T22:14:59.927136
MEAN_MOTION    = 14.33715620
ECCENTRICITY   = .00693821
INCLINATION    = 98.3117
RA_OF_ASC_NODE = 342.1757
ARG_OF_PERICENTER = 307.6268
MEAN_ANOMALY   = 121.0118

EPHEMERIS_TYPE = 0
CLASSIFICATION_TYPE = U
NORAD_CAT_ID   = 27601
ELEMENT_SET_NO = 999
REV_AT_EPOCH   = 20712
BSTAR          = .17399171E-3
MEAN_MOTION_DOT = .454E-5
MEAN_MOTION_DDOT = 0

CCSDS_OMM_VERS = 2.0
CREATION_DATE  = 
ORIGINATOR     = 

OBJECT_NAME    = CZ-4B R/B
OBJECT_ID      = 2003-049C
CENTER_NAME    = EARTH
REF_FRAME      = TEME
TIME_SYSTEM    = UTC
MEAN_ELEMENT_THEORY = SGP/SGP4

EPOCH          = 2026-01-19T23:17:11.649408
MEAN_MOTION    = 14.54954330
ECCENTRICITY   = .00486641
INCLINATION    = 98.6821
RA_OF_ASC_NODE = 12.9861
ARG_OF_PERICENTER = 21.6782
MEAN_ANOMALY   = 338.6459

EPHEMERIS_TYPE = 0
CLASSIFICATION_TYPE = U
NORAD_CAT_ID   = 28059
ELEMENT_SET_NO = 999
REV_AT_EPOCH   = 17951
BSTAR          = .15984134E-3
MEAN_MOTION_DOT = .647E-5
MEAN_MOTION_DDOT = 0

CCSDS_OMM_VERS = 2.0
CREATION_DATE  = 
ORIGINATOR     = 

OBJECT_NAME    = CZ-2C R/B
OBJECT_ID      = 2004-012C
CENTER_NAME    = EARTH
REF_FRAME      = TEME
TIME_SYSTEM    = UTC
MEAN_ELEMENT_THEORY = SGP/SGP4

EPOCH          = 2026-01-19T17:14:59.898912
MEAN_MOTION    = 15.58783862
ECCENTRICITY   = .00171983
INCLINATION    = 97.7352
RA_OF_ASC_NODE = 80.5594
ARG_OF_PERICENTER = 129.3221
MEAN_ANOMALY   = 230.9562

EPHEMERIS_TYPE = 0
CLASSIFICATION_TYPE = U
NORAD_CAT_ID   = 28222
ELEMENT_SET_NO = 999
REV_AT_EPOCH   = 19663
BSTAR          = .49820848E-3
MEAN_MOTION_DOT = .38704E-3
MEAN_MOTION_DDOT = 0

CCSDS_OMM_VERS = 2.0
CREATION_DATE  = 
ORIGINATOR     = 

OBJECT_NAME    = SL-16 R/B
OBJECT_ID      = 2004-021B
CENTER_NAME    = EARTH
REF_FRAME      = TEME
TIME_SYSTEM    = UTC
MEAN_ELEMENT_THEORY = SGP/SGP4

EPOCH          = 2026-01-19T22:45:13.577184
MEAN_MOTION    = 14.14592380
ECCENTRICITY   = .00027764
INCLINATION    = 71.0029
RA_OF_ASC_NODE = 334.7812
ARG_OF_PERICENTER = 133.6723
MEAN_ANOMALY   = 226.4630

EPHEMERIS_TYPE = 0
CLASSIFICATION_TYPE = U
NORAD_CAT_ID   = 28353
ELEMENT_SET_NO = 999
REV_AT_EPOCH   = 11594
BSTAR          = -.4469894E-4
MEAN_MOTION_DOT = -.133E-5
MEAN_MOTION_DDOT = 0

CCSDS_OMM_VERS = 2.0
CREATION_DATE  = 
ORIGINATOR     = 

OBJECT_NAME    = CZ-4B R/B
OBJECT_ID      = 2004-035C
CENTER_NAME    = EARTH
REF_FRAME      = TEME
TIME_SYSTEM    = UTC
MEAN_ELEMENT_THEORY = SGP/SGP4

EPOCH          = 2026-01-19T14:47:47.131872
MEAN_MOTION    = 15.28061511
ECCENTRICITY   = .00338671
INCLINATION    = 97.3563
RA_OF_ASC_NODE = 54.4648
ARG_OF_PERICENTER = 140.5316
MEAN_ANOMALY   = 219.8401

EPHEMERIS_TYPE = 0
CLASSIFICATION_TYPE = U
NORAD_CAT_ID   = 28415
ELEMENT_SET_NO = 999
REV_AT_EPOCH   = 17241
BSTAR          = .27992639E-3
MEAN_MOTION_DOT = .7716E-4
MEAN_MOTION_DDOT = 0

CCSDS_OMM_VERS = 2.0
CREATION_DATE  = 
ORIGINATOR     = 

OBJECT_NAME    = CZ-2C R/B
OBJECT_ID      = 2004-046B
CENTER_NAME    = EARTH
REF_FRAME      = TEME
TIME_SYSTEM    = UTC
MEAN_ELEMENT_THEORY = SGP/SGP4

EPOCH          = 2026-01-19T18:04:14.676096
MEAN_MOTION    = 14.26967608
ECCENTRICITY   = .01384795
INCLINATION    = 98.2002
RA_OF_ASC_NODE = 297.7732
ARG_OF_PERICENTER = 299.9061
MEAN_ANOMALY   = 58.8425

EPHEMERIS_TYPE = 0
CLASSIFICATION_TYPE = U
NORAD_CAT_ID   = 28480
ELEMENT_SET_NO = 999
REV_AT_EPOCH   = 10152
BSTAR          = .80631908E-4
MEAN_MOTION_DOT = .174E-5
MEAN_MOTION_DDOT = 0

CCSDS_OMM_VERS = 2.0
CREATION_DATE  = 
ORIGINATOR     = 

OBJECT_NAME    = ARIANE 5 R/B
OBJECT_ID      = 2004-049H
CENTER_NAME    = EARTH
REF_FRAME      = TEME
TIME_SYSTEM    = UTC
MEAN_ELEMENT_THEORY = SGP/SGP4

EPOCH          = 2026-01-19T22:09:35.304192
MEAN_MOTION    = 14.85133743
ECCENTRICITY   = .00849687
INCLINATION    = 98.2550
RA_OF_ASC_NODE = 186.5823
ARG_OF_PERICENTER = 148.4663
MEAN_ANOMALY   = 212.1684

EPHEMERIS_TYPE = 0
CLASSIFICATION_TYPE = U
NORAD_CAT_ID   = 28499
ELEMENT_SET_NO = 999
REV_AT_EPOCH   = 13855
BSTAR          = .17121851E-3
MEAN_MOTION_DOT = .1499E-4
MEAN_MOTION_DDOT = 0

CCSDS_OMM_VERS = 2.0
CREATION_DATE  = 
ORIGINATOR     = 

OBJECT_NAME    = CZ-2D R/B
OBJECT_ID      = 2005-024B
CENTER_NAME    = EARTH
REF_FRAME      = TEME
TIME_SYSTEM    = UTC
MEAN_ELEMENT_THEORY = SGP/SGP4

EPOCH          = 2026-01-19T23:01:59.531520
MEAN_MOTION    = 15.55767679
ECCENTRICITY   = .00049517
INCLINATION    = 97.3616
RA_OF_ASC_NODE = 33.4788
ARG_OF_PERICENTER = 171.8947
MEAN_ANOMALY   = 188.2389

EPHEMERIS_TYPE = 0
CLASSIFICATION_TYPE = U
NORAD_CAT_ID   = 28738
ELEMENT_SET_NO = 999
REV_AT_EPOCH   = 13219
BSTAR          = .57167029E-3
MEAN_MOTION_DOT = .39469E-3
MEAN_MOTION_DDOT = 0

