IDEFIX & ARIANE 42P R/B 
1 27422U 02021B   26019.83097278  .00000273  00000+0  12051-3 0  9997
2 27422  98.5826 319.0362 0011474 336.7270  23.3392 14.30981845237036
AQUA                    
1 27424U 02022A   26019.95447505  .00001296  00000+0  26931-3 0  9993
2 27424  98.4091 346.4652 0001983  72.1988 359.6274 14.61832814261618
CZ-4B R/B               
1 27432U 02024C   26019.78122678  .00000058  00000+0  52632-4 0  9999
2 27432  98.8939  73.4096 0050515 160.9491 310.7247 14.14536520222327
MIDORI II (ADEOS-II)    
1 27597U 02056A   26019.93970044  .00000391  00000+0  17165-3 0  9992
2 27597  98.7692 338.1077 0001845 111.5521 248.5857 14.29238946203334
H-2A R/B                
1 27601U 02056E   26019.92708249  .00000454  00000+0  17399-3 0  9992
2 27601  98.3117 342.1757 0069382 307.6268 121.0118 14.33715620207124
CZ-4B R/B               
1 28059U 03049C   26019.97027372  .00000647  00000+0  15984-3 0  9991
2 28059  98.6821  12.9861 0048664  21.6782 338.6459 14.54954330179510
CZ-2C R/B               
1 28222U 04012C   26019.71874883  .00038704  00000+0  49821-3 0  9995
2 28222  97.7352  80.5594 0017198 129.3221 230.9562 15.58783862196633
SL-16 R/B               
1 28353U 04021B   26019.94807381 -.00000133  00000+0 -44699-4 0  9990
2 28353  71.0029 334.7812 0002776 133.6723 226.4630 14.14592380115947
CZ-4B R/B               
1 28415U 04035C   26019.61651773  .00007716  00000+0  27993-3 0  9999
2 28415  97.3563  54.4648 0033867 140.5316 219.8401 15.28061511172413
CZ-2C R/B               
1 28480U 04046B   26019.75294764  .00000174  00000+0  80632-4 0  9992
2 28480  98.2002 297.7732 0138479 299.9061  58.8425 14.26967608101520
ARIANE 5 R/B            
1 28499U 04049H   26019.92332528  .00001499  00000+0  17122-3 0  9999
2 28499  98.2550 186.5823 0084968 148.4663 212.1684 14.85133743138558
CZ-2D R/B               
1 28738U 05024B   26019.95971680  .00039469  00000+0  57167-3 0  9991
2 28738  97.3616  33.4788 0004951 171.8947 188.2389 15.55767679132194
